GOMX-1                  
1 39430U 13066Q   26129.50630329  .00001467  00000+0  22686-3 0  9997
2 39430  97.6511 332.4073 0128236 201.1545 158.4331 14.69309091664230
CUBEBUG-2 (LO-74)       
1 39440U 13066AA  26129.40782529  .00003053  00000+0  28629-3 0  9993
2 39440  97.8886  78.2384 0058641 154.4064 206.0079 14.93476844671208
NEE-02 KRYSAOR          
1 39441U 13066AB  26129.37017609  .00001230  00000+0  14022-3 0  9997
2 39441  97.8876  68.8713 0065740 195.7722 164.1448 14.86476070670437
FUNCUBE-1 (AO-73)       
1 39444U 13066AE  26129.46954043  .00006573  00000+0  41405-3 0  9992
2 39444  97.8256 100.1281 0035840 338.2611  21.7094 15.08984310673828
UWE-3                   
1 39446U 13066AG  26128.84211439  .00003158  00000+0  27466-3 0  9997
2 39446  97.8687  84.6693 0051190  90.6298 270.0789 14.96703614671692
SMDC ONE 2.4            
1 39469U 13072H   26129.20542720  .00008134  00000+0  32877-3 0  9991
2 39469 120.4872 201.6821 0139344 336.7112  22.7694 15.17460536111915
COSMOS 2488 (RODNIK-S 7)
1 39483U 13076A   26129.48024706 -.00000012  00000+0 -16133-3 0  9996
2 39483  82.4859 192.8090 0019817 176.3051 183.8179 12.42904379561081
COSMOS 2489 (RODNIK-S 8)
1 39484U 13076B   26129.53513619  .00000017  00000+0  47598-4 0  9992
2 39484  82.4896 194.1405 0021653 176.3958 183.7282 12.42879318561140
COSMOS 2490 (RODNIK-S 9)
1 39485U 13076C   26129.50695554  .00000056  00000+0  32973-3 0  9992
2 39485  82.4842 192.2427 0021419 192.1851 167.8713 12.42876706561075
KAZEOSAT 1              
1 39731U 14024A   26129.51300346  .00000388  00000+0  13119-3 0  9992
2 39731  98.3207 202.9192 0001570  92.9899 267.1470 14.42065345632987
COSMOS 2496 (RODNIK-S *)
1 39761U 14028A   26129.46454336 -.00000113  00000+0 -88477-3 0  9999
2 39761  82.4426 132.9867 0020325 159.9496 200.2386 12.42876409542707
COSMOS 2497 (RODNIK-S *)
1 39762U 14028B   26129.52081034 -.00000010  00000+0 -14626-3 0  9999
2 39762  82.4475 134.6263 0020961 154.9287 205.2815 12.42892597542719
COSMOS 2498 (RODNIK-S *)
1 39763U 14028C   26129.50109209 -.00000001  00000+0 -80059-4 0  9997
2 39763  82.4434 133.1425 0021696 154.7714 205.4430 12.42979157542744
HODOYOSHI-4             
1 40011U 14033B   26129.50430770  .00000359  00000+0  44547-4 0  9997
2 40011  97.5462 316.1967 0025180  74.6802 285.7196 14.88036337643056
UNISAT-6                
1 40012U 14033C   26129.53741031  .00001994  00000+0  21923-3 0  9994
2 40012  97.7837 282.9467 0044994 194.1923 165.8033 14.88019856640418
DEIMOS-2                
1 40013U 14033D   26129.52939747  .00001051  00000+0  10470-3 0  9996
2 40013  97.5871   5.3679 0002314  88.8062 271.3424 14.93615688631957
BUGSAT-1 (TITA)         
1 40014U 14033E   26129.53953343  .00002818  00000+0  15289-3 0  9991
2 40014  98.0402 219.8444 0027162 314.6439  45.2577 15.15190624649984
SAUDISAT 4              
1 40016U 14033G   26129.36611912  .00000600  00000+0  85941-4 0  9997
2 40016  97.7532 276.8562 0044415 197.9766 161.9877 14.79487066640332
APRIZESAT 9             
1 40018U 14033J   26129.31517774  .00000372  00000+0  62351-4 0  9991
2 40018  97.9004 263.4763 0065356 326.3003  33.4058 14.74169245637830
BRITE-CA1 (TORONTO)     
1 40020U 14033L   26129.30889472  .00000633  00000+0  10253-3 0  9993
2 40020  97.9683 258.9676 0079538  42.2047 318.5247 14.72623647636494
DUCHIFAT-1              
1 40021U 14033M   26129.10684208  .00070523  00000+0  93897-3 0  9992
2 40021  98.0510 183.0115 0005614 196.6222 163.4848 15.57905226649651
NANOSATC-BR1            
1 40024U 14033Q   26129.50828979  .00011961  00000+0  41152-3 0  9992
2 40024  98.0757 158.5041 0002181 344.2383  15.8788 15.30242502648066
QB50P1                  
1 40025U 14033R   26129.45496641  .00006677  00000+0  33503-3 0  9993
2 40025  98.0988 137.9036 0008728  10.8785 349.2634 15.17661614647150
