OBJECT_NAME,OBJECT_ID,EPOCH,MEAN_MOTION,ECCENTRICITY,INCLINATION,RA_OF_ASC_NODE,ARG_OF_PERICENTER,MEAN_ANOMALY,EPHEMERIS_TYPE,CLASSIFICATION_TYPE,NORAD_CAT_ID,ELEMENT_SET_NO,REV_AT_EPOCH,BSTAR,MEAN_MOTION_DOT,MEAN_MOTION_DDOT
GOMX-1,2013-066Q,2026-05-09T12:09:04.604256,14.69309091,.0128236,97.6511,332.4073,201.1545,158.4331,0,U,39430,999,66423,.22686E-3,.1467E-4,0
CUBEBUG-2 (LO-74),2013-066AA,2026-05-09T09:47:16.105056,14.93476844,.0058641,97.8886,78.2384,154.4064,206.0079,0,U,39440,999,67120,.28629E-3,.3053E-4,0
NEE-02 KRYSAOR,2013-066AB,2026-05-09T08:53:03.214176,14.86476070,.006574,97.8876,68.8713,195.7722,164.1448,0,U,39441,999,67043,.14022E-3,.123E-4,0
FUNCUBE-1 (AO-73),2013-066AE,2026-05-09T11:16:08.293152,15.08984310,.003584,97.8256,100.1281,338.2611,21.7094,0,U,39444,999,67382,.41405E-3,.6573E-4,0
UWE-3,2013-066AG,2026-05-08T20:12:38.683296,14.96703614,.00511901,97.8687,84.6693,90.6298,270.0789,0,U,39446,999,67169,.27466211E-3,.3158E-4,0
SMDC ONE 2.4,2013-072H,2026-05-09T04:55:48.910080,15.17460536,.0139345,120.4872,201.6821,336.7112,22.7694,0,U,39469,999,11191,.32877E-3,.8134E-4,0
COSMOS 2488 (RODNIK-S 7),2013-076A,2026-05-09T11:31:33.345984,12.42904379,.0019817,82.4859,192.8090,176.3051,183.8179,0,U,39483,999,56108,-.16133E-3,-.12E-6,0
COSMOS 2489 (RODNIK-S 8),2013-076B,2026-05-09T12:50:35.766816,12.42879318,.0021653,82.4896,194.1405,176.3958,183.7282,0,U,39484,999,56114,.47598E-4,.17E-6,0
COSMOS 2490 (RODNIK-S 9),2013-076C,2026-05-09T12:10:00.958656,12.42876706,.0021419,82.4842,192.2427,192.1851,167.8713,0,U,39485,999,56107,.32973E-3,.56E-6,0
KAZEOSAT 1,2014-024A,2026-05-09T12:18:43.498944,14.42065345,.000157,98.3207,202.9192,92.9899,267.1470,0,U,39731,999,63298,.13119E-3,.388E-5,0
COSMOS 2496 (RODNIK-S 10),2014-028A,2026-05-09T11:08:56.546304,12.42876409,.0020325,82.4426,132.9867,159.9496,200.2386,0,U,39761,999,54270,-.88477E-3,-.113E-5,0
COSMOS 2497 (RODNIK-S 11),2014-028B,2026-05-09T12:29:58.013376,12.42892597,.0020961,82.4475,134.6263,154.9287,205.2815,0,U,39762,999,54271,-.14626E-3,-.1E-6,0
COSMOS 2498 (RODNIK-S 12),2014-028C,2026-05-09T12:01:34.356576,12.42979157,.0021696,82.4434,133.1425,154.7714,205.4430,0,U,39763,999,54274,-.80059E-4,-.1E-7,0
HODOYOSHI-4,2014-033B,2026-05-09T12:06:12.185280,14.88036337,.002518,97.5462,316.1967,74.6802,285.7196,0,U,40011,999,64305,.44547E-4,.359E-5,0
UNISAT-6,2014-033C,2026-05-09T12:53:52.250784,14.88019856,.0044994,97.7837,282.9467,194.1923,165.8033,0,U,40012,999,64041,.21923E-3,.1994E-4,0
DEIMOS-2,2014-033D,2026-05-09T12:42:19.941408,14.93615688,.0002314,97.5871,5.3679,88.8062,271.3424,0,U,40013,999,63195,.1047E-3,.1051E-4,0
BUGSAT-1 (TITA),2014-033E,2026-05-09T12:56:55.688352,15.15190624,.0027162,98.0402,219.8444,314.6439,45.2577,0,U,40014,999,64998,.15289E-3,.2818E-4,0
SAUDISAT 4,2014-033G,2026-05-09T08:47:12.691968,14.79487066,.0044415,97.7532,276.8562,197.9766,161.9877,0,U,40016,999,64033,.85941E-4,.6E-5,0
APRIZESAT 9,2014-033J,2026-05-09T07:33:51.356736,14.74169245,.0065356,97.9004,263.4763,326.3003,33.4058,0,U,40018,999,63783,.62351E-4,.372E-5,0
BRITE-CA1 (TORONTO),2014-033L,2026-05-09T07:24:48.503808,14.72623647,.0079538,97.9683,258.9676,42.2047,318.5247,0,U,40020,999,63649,.10253E-3,.633E-5,0
DUCHIFAT-1,2014-033M,2026-05-09T02:33:51.154848,15.57905226,.0005614,98.0510,183.0115,196.6222,163.4848,0,U,40021,999,64965,.93897E-3,.70523E-3,0
NANOSATC-BR1,2014-033Q,2026-05-09T12:11:56.237856,15.30242502,.0002181,98.0757,158.5041,344.2383,15.8788,0,U,40024,999,64806,.41152E-3,.11961E-3,0
QB50P1,2014-033R,2026-05-09T10:55:09.097824,15.17661614,.0008728,98.0988,137.9036,10.8785,349.2634,0,U,40025,999,64715,.33503E-3,.6677E-4,0
